GLOBALSTAR M035 [-]     
1 25851U 99037A   24039.35139685 -.00000023  00000+0  15241-2 0  9997
2 25851  51.9953  78.4814 0013564 257.8330 115.1402 11.04528447 41582
GLOBALSTAR M032 [-]     
1 25852U 99037B   24039.38839010 -.00000081  00000+0 -45112-3 0  9996
2 25852  51.9961 297.7437 0010266  54.1778 305.9975 11.19050312 79390
GLOBALSTAR M051 [-]     
1 25853U 99037C   24039.60613335 -.00000100  00000+0 -68750-3 0  9997
2 25853  51.9784 153.9948 0002010  73.2428 286.8603 11.42195564 75897
GLOBALSTAR M030 [-]     
1 25854U 99037D   24039.27573010 -.00000039  00000+0  75349-3 0  9998
2 25854  51.9914 352.3674 0003515 241.0334 119.0130 11.55088318 92855
GLOBALSTAR M048 [-]     
1 25872U 99041A   24039.36344825 -.00000054  00000+0  43024-3 0  9995
2 25872  51.9373  70.4794 0013129  49.8753 323.2821 11.33842951 68852
GLOBALSTAR M026 [-]     
1 25873U 99041B   24039.61089318 -.00000052  00000+0  46334-3 0  9992
2 25873  51.9971 201.0743 0002025 128.8763 311.5156 11.06834422 93724
GLOBALSTAR M043 [-]     
1 25874U 99041C   24039.58321899 -.00000076  00000+0 -23013-3 0  9998
2 25874  51.9386 157.8888 0013243 185.7053 263.9682 11.25674469 67179
GLOBALSTAR M028 [-]     
1 25875U 99041D   24039.25630745 -.00000062  00000+0  25360-3 0  9997
2 25875  51.9596 228.8198 0064547  76.8336 283.9717 12.50550325128254
